[{"OBJECT_NAME":"UNKNOWN","OBJECT_ID":"","EPOCH":"2026-04-04T14:45:43.902144","MEAN_MOTION":13.54698367,"ECCENTRICITY":0.0107648,"INCLINATION":99.4194,"RA_OF_ASC_NODE":148.2769,"ARG_OF_PERICENTER":24.1219,"MEAN_ANOMALY":336.4908,"EPHEMERIS_TYPE":0,"CLASSIFICATION_TYPE":"U","NORAD_CAT_ID":82311,"ELEMENT_SET_NO":999,"REV_AT_EPOCH":56560,"BSTAR":0.00098567,"MEAN_MOTION_DOT":6.59e-6,"MEAN_MOTION_DDOT":0},{"OBJECT_NAME":"UNKNOWN","OBJECT_ID":"","EPOCH":"2026-04-05T07:56:37.182624","MEAN_MOTION":13.15733598,"ECCENTRICITY":0.0451328,"INCLINATION":66.9377,"RA_OF_ASC_NODE":310.7339,"ARG_OF_PERICENTER":92.4415,"MEAN_ANOMALY":272.8358,"EPHEMERIS_TYPE":0,"CLASSIFICATION_TYPE":"U","NORAD_CAT_ID":82363,"ELEMENT_SET_NO":999,"REV_AT_EPOCH":30520,"BSTAR":0.00092069,"MEAN_MOTION_DOT":5.24e-6,"MEAN_MOTION_DDOT":0},{"OBJECT_NAME":"UNKNOWN","OBJECT_ID":"","EPOCH":"2026-04-02T07:21:03.743712","MEAN_MOTION":13.9823656,"ECCENTRICITY":0.0083676,"INCLINATION":98.8933,"RA_OF_ASC_NODE":109.0284,"ARG_OF_PERICENTER":33.9984,"MEAN_ANOMALY":326.6502,"EPHEMERIS_TYPE":0,"CLASSIFICATION_TYPE":"U","NORAD_CAT_ID":82369,"ELEMENT_SET_NO":999,"REV_AT_EPOCH":57262,"BSTAR":0.00016448,"MEAN_MOTION_DOT":1.99e-6,"MEAN_MOTION_DDOT":0},{"OBJECT_NAME":"UNKNOWN","OBJECT_ID":"","EPOCH":"2026-04-05T02:40:11.646624","MEAN_MOTION":14.87276655,"ECCENTRICITY":0.0008236,"INCLINATION":98.3886,"RA_OF_ASC_NODE":330.7013,"ARG_OF_PERICENTER":127.5288,"MEAN_ANOMALY":232.6676,"EPHEMERIS_TYPE":0,"CLASSIFICATION_TYPE":"U","NORAD_CAT_ID":82381,"ELEMENT_SET_NO":999,"REV_AT_EPOCH":52762,"BSTAR":0.0030615,"MEAN_MOTION_DOT":0.0002766,"MEAN_MOTION_DDOT":0},{"OBJECT_NAME":"UNKNOWN","OBJECT_ID":"","EPOCH":"2026-04-03T10:53:05.536320","MEAN_MOTION":15.05186519,"ECCENTRICITY":0.0009995,"INCLINATION":86.6581,"RA_OF_ASC_NODE":107.2723,"ARG_OF_PERICENTER":108.7035,"MEAN_ANOMALY":251.5286,"EPHEMERIS_TYPE":0,"CLASSIFICATION_TYPE":"U","NORAD_CAT_ID":82402,"ELEMENT_SET_NO":999,"REV_AT_EPOCH":47126,"BSTAR":0.00077395,"MEAN_MOTION_DOT":0.00011079,"MEAN_MOTION_DDOT":0},{"OBJECT_NAME":"UNKNOWN","OBJECT_ID":"","EPOCH":"2026-04-02T19:45:29.961216","MEAN_MOTION":14.59039398,"ECCENTRICITY":0.0057748,"INCLINATION":74.0045,"RA_OF_ASC_NODE":128.6334,"ARG_OF_PERICENTER":265.7085,"MEAN_ANOMALY":93.7479,"EPHEMERIS_TYPE":0,"CLASSIFICATION_TYPE":"U","NORAD_CAT_ID":82432,"ELEMENT_SET_NO":999,"REV_AT_EPOCH":49910,"BSTAR":0.00048039,"MEAN_MOTION_DOT":2.279e-5,"MEAN_MOTION_DDOT":0},{"OBJECT_NAME":"UNKNOWN","OBJECT_ID":"","EPOCH":"2026-04-05T01:57:35.169984","MEAN_MOTION":15.05469763,"ECCENTRICITY":0.0008477,"INCLINATION":85.8717,"RA_OF_ASC_NODE":138.715,"ARG_OF_PERICENTER":193.5222,"MEAN_ANOMALY":166.5787,"EPHEMERIS_TYPE":0,"CLASSIFICATION_TYPE":"U","NORAD_CAT_ID":82448,"ELEMENT_SET_NO":999,"REV_AT_EPOCH":45408,"BSTAR":0.00047276,"MEAN_MOTION_DOT":6.827e-5,"MEAN_MOTION_DDOT":0},{"OBJECT_NAME":"UNKNOWN","OBJECT_ID":"","EPOCH":"2026-04-03T08:38:50.969760","MEAN_MOTION":12.3971343,"ECCENTRICITY":0.0094095,"INCLINATION":102.1968,"RA_OF_ASC_NODE":54.7304,"ARG_OF_PERICENTER":1.5838,"MEAN_ANOMALY":358.5507,"EPHEMERIS_TYPE":0,"CLASSIFICATION_TYPE":"U","NORAD_CAT_ID":82453,"ELEMENT_SET_NO":999,"REV_AT_EPOCH":55989,"BSTAR":0.0003827,"MEAN_MOTION_DOT":6.0e-8,"MEAN_MOTION_DDOT":0},{"OBJECT_NAME":"UNKNOWN","OBJECT_ID":"","EPOCH":"2026-04-04T12:00:15.028416","MEAN_MOTION":13.55846886,"ECCENTRICITY":0.0043682,"INCLINATION":99.3472,"RA_OF_ASC_NODE":115.3001,"ARG_OF_PERICENTER":268.0524,"MEAN_ANOMALY":91.5612,"EPHEMERIS_TYPE":0,"CLASSIFICATION_TYPE":"U","NORAD_CAT_ID":82484,"ELEMENT_SET_NO":999,"REV_AT_EPOCH":60591,"BSTAR":0.00041061,"MEAN_MOTION_DOT":2.46e-6,"MEAN_MOTION_DDOT":0},{"OBJECT_NAME":"UNKNOWN","OBJECT_ID":"","EPOCH":"2026-04-05T14:01:26.114592","MEAN_MOTION":14.9111223,"ECCENTRICITY":0.0009376,"INCLINATION":74.0048,"RA_OF_ASC_NODE":154.1475,"ARG_OF_PERICENTER":280.6936,"MEAN_ANOMALY":79.319,"EPHEMERIS_TYPE":0,"CLASSIFICATION_TYPE":"U","NORAD_CAT_ID":82494,"ELEMENT_SET_NO":999,"REV_AT_EPOCH":10190,"BSTAR":0.0020152,"MEAN_MOTION_DOT":0.00020021,"MEAN_MOTION_DDOT":0},{"OBJECT_NAME":"UNKNOWN","OBJECT_ID":"","EPOCH":"2026-04-04T08:11:22.420608","MEAN_MOTION":14.19408542,"ECCENTRICITY":0.0121507,"INCLINATION":70.9637,"RA_OF_ASC_NODE":125.3524,"ARG_OF_PERICENTER":301.8791,"MEAN_ANOMALY":57.0556,"EPHEMERIS_TYPE":0,"CLASSIFICATION_TYPE":"U","NORAD_CAT_ID":82500,"ELEMENT_SET_NO":999,"REV_AT_EPOCH":63492,"BSTAR":0.0025798,"MEAN_MOTION_DOT":5.799e-5,"MEAN_MOTION_DDOT":0},{"OBJECT_NAME":"UNKNOWN","OBJECT_ID":"","EPOCH":"2026-04-05T15:14:23.775360","MEAN_MOTION":14.36272769,"ECCENTRICITY":0.0131616,"INCLINATION":73.2805,"RA_OF_ASC_NODE":323.0771,"ARG_OF_PERICENTER":87.2681,"MEAN_ANOMALY":305.5783,"EPHEMERIS_TYPE":0,"CLASSIFICATION_TYPE":"U","NORAD_CAT_ID":82524,"ELEMENT_SET_NO":999,"REV_AT_EPOCH":59338,"BSTAR":0.0019023,"MEAN_MOTION_DOT":6.109e-5,"MEAN_MOTION_DDOT":0},{"OBJECT_NAME":"UNKNOWN","OBJECT_ID":"","EPOCH":"2026-04-01T11:22:26.152320","MEAN_MOTION":13.41220697,"ECCENTRICITY":0.0237324,"INCLINATION":99.777,"RA_OF_ASC_NODE":176.3609,"ARG_OF_PERICENTER":332.9019,"MEAN_ANOMALY":42.9194,"EPHEMERIS_TYPE":0,"CLASSIFICATION_TYPE":"U","NORAD_CAT_ID":82529,"ELEMENT_SET_NO":999,"REV_AT_EPOCH":60445,"BSTAR":0.00092199,"MEAN_MOTION_DOT":5.59e-6,"MEAN_MOTION_DDOT":0},{"OBJECT_NAME":"UNKNOWN","OBJECT_ID":"","EPOCH":"2026-03-31T19:53:22.494912","MEAN_MOTION":13.90975398,"ECCENTRICITY":0.0012105,"INCLINATION":99.9991,"RA_OF_ASC_NODE":46.5295,"ARG_OF_PERICENTER":21.205,"MEAN_ANOMALY":8.6531,"EPHEMERIS_TYPE":0,"CLASSIFICATION_TYPE":"U","NORAD_CAT_ID":82560,"ELEMENT_SET_NO":999,"REV_AT_EPOCH":62703,"BSTAR":0.0012364,"MEAN_MOTION_DOT":1.501e-5,"MEAN_MOTION_DDOT":0},{"OBJECT_NAME":"UNKNOWN","OBJECT_ID":"","EPOCH":"2026-04-02T17:30:36.385056","MEAN_MOTION":14.36232332,"ECCENTRICITY":0.0097219,"INCLINATION":66.771,"RA_OF_ASC_NODE":215.618,"ARG_OF_PERICENTER":230.1812,"MEAN_ANOMALY":129.0705,"EPHEMERIS_TYPE":0,"CLASSIFICATION_TYPE":"U","NORAD_CAT_ID":82597,"ELEMENT_SET_NO":999,"REV_AT_EPOCH":64491,"BSTAR":0.00088705,"MEAN_MOTION_DOT":2.649e-5,"MEAN_MOTION_DDOT":0},{"OBJECT_NAME":"UNKNOWN","OBJECT_ID":"","EPOCH":"2026-04-05T13:01:10.528608","MEAN_MOTION":14.49589191,"ECCENTRICITY":0.0039279,"INCLINATION":74.0292,"RA_OF_ASC_NODE":29.997,"ARG_OF_PERICENTER":303.9654,"MEAN_ANOMALY":55.7775,"EPHEMERIS_TYPE":0,"CLASSIFICATION_TYPE":"U","NORAD_CAT_ID":82617,"ELEMENT_SET_NO":999,"REV_AT_EPOCH":65331,"BSTAR":0.0002661,"MEAN_MOTION_DOT":1.003e-5,"MEAN_MOTION_DDOT":0},{"OBJECT_NAME":"UNKNOWN","OBJECT_ID":"","EPOCH":"2026-03-26T16:25:31.114560","MEAN_MOTION":13.16464723,"ECCENTRICITY":0.0018428,"INCLINATION":82.4788,"RA_OF_ASC_NODE":174.5099,"ARG_OF_PERICENTER":191.4493,"MEAN_ANOMALY":321.9106,"EPHEMERIS_TYPE":0,"CLASSIFICATION_TYPE":"U","NORAD_CAT_ID":82627,"ELEMENT_SET_NO":999,"REV_AT_EPOCH":59250,"BSTAR":0.0011211,"MEAN_MOTION_DOT":4.4e-6,"MEAN_MOTION_DDOT":0}]
