UNKNOWN                 
1 82311U          26094.61509146  .00000659  00000+0  98567-3 0  9995
2 82311  99.4194 148.2769 0107648  24.1219 336.4908 13.54698367565602
UNKNOWN                 
1 82363U          26095.33098591  .00000524  00000+0  92069-3 0  9991
2 82363  66.9377 310.7339 0451328  92.4415 272.8358 13.15733598305206
UNKNOWN                 
1 82369U          26092.30629333  .00000199  00000+0  16448-3 0  9990
2 82369  98.8933 109.0284 0083676  33.9984 326.6502 13.98236560572629
UNKNOWN                 
1 82381U          26095.11124591  .00027660  00000+0  30615-2 0  9995
2 82381  98.3886 330.7013 0008236 127.5288 232.6676 14.87276655527620
UNKNOWN                 
1 82402U          26093.45353630  .00011079  00000+0  77395-3 0  9996
2 82402  86.6581 107.2723 0009995 108.7035 251.5286 15.05186519471260
UNKNOWN                 
1 82432U          26092.82326344  .00002279  00000+0  48039-3 0  9996
2 82432  74.0045 128.6334 0057748 265.7085  93.7479 14.59039398499105
UNKNOWN                 
1 82448U          26095.08165706  .00006827  00000+0  47276-3 0  9992
2 82448  85.8717 138.7150 0008477 193.5222 166.5787 15.05469763454086
UNKNOWN                 
1 82453U          26093.36031215  .00000006  00000+0  38270-3 0  9991
2 82453 102.1968  54.7304 0094095   1.5838 358.5507 12.39713430559898
UNKNOWN                 
1 82484U          26094.50017394  .00000246  00000+0  41061-3 0  9992
2 82484  99.3472 115.3001 0043682 268.0524  91.5612 13.55846886605912
UNKNOWN                 
1 82494U          26095.58433003  .00020021  00000+0  20152-2 0  9991
2 82494  74.0048 154.1475 0009376 280.6936  79.3190 14.91112230101902
UNKNOWN                 
1 82500U          26094.34123172  .00005799  00000+0  25798-2 0  9991
2 82500  70.9637 125.3524 0121507 301.8791  57.0556 14.19408542634926
UNKNOWN                 
1 82524U          26095.63499740  .00006109  00000+0  19023-2 0  9997
2 82524  73.2805 323.0771 0131616  87.2681 305.5783 14.36272769593387
UNKNOWN                 
1 82529U          26091.47391380  .00000559  00000+0  92199-3 0  9990
2 82529  99.7770 176.3609 0237324 332.9019  42.9194 13.41220697604450
UNKNOWN                 
1 82560U          26090.82873258  .00001501  00000+0  12364-2 0  9995
2 82560  99.9991  46.5295 0012105  21.2050   8.6531 13.90975398627034
UNKNOWN                 
1 82597U          26092.72958779  .00002649  00000+0  88705-3 0  9995
2 82597  66.7710 215.6180 0097219 230.1812 129.0705 14.36232332644915
UNKNOWN                 
1 82617U          26095.54248297  .00001003  00000+0  26610-3 0  9998
2 82617  74.0292  29.9970 0039279 303.9654  55.7775 14.49589191653311
UNKNOWN                 
1 82627U          26085.68438790  .00000440  00000+0  11211-2 0  9996
2 82627  82.4788 174.5099 0018428 191.4493 321.9106 13.16464723592503
